STARLINK-6272           
1 56420U 23061AY  26068.36411869 -.00000833  00000+0 -46603-4 0  9997
2 56420  43.0031 173.4005 0001377 264.9211  95.1474 15.02533117157004
PICO-02A021             
1 60538U 24149BY  26068.15390193  .00008488  00000+0  64833-3 0  9999
2 60538  97.6823 147.9080 0004195   9.5557 350.5747 15.02201963 84718
